STARLINK-2054
1 27664C 21012AW  21325.15433564  .00007824  00000-0  52437-3 0  3255
2 27664  53.0532 257.5469 0001856  65.5797  15.6178 15.06381087    12
